start=new Date('2023-04-23T00:00:00.000Z').valueOf();
sats=[{"CENTER_NAME":"EARTH","LAUNCH_DATE":"2022-12-17","OBJECT_TYPE":"PAYLOAD","ELEMENT_SET_NO":"999","TLE_LINE1":"1 54798U 22175AS  23112.91668981 -.00445410  00000-0 -28420-1 0  9994","SEMIMAJOR_AXIS":"6912.803","OBJECT_NAME":"STARLINK-5420","TLE_LINE2":"2 54798  53.2174  60.4833 0001647 102.2358 175.5764 15.10502736  1309","GP_ID":"230598416","REF_FRAME":"TEME","EPHEMERIS_TYPE":"0","REV_AT_EPOCH":"130","COUNTRY_CODE":"US","MEAN_MOTION_DOT":"-0.00445410","PERIOD":"95.332","FILE":"3892285","MEAN_MOTION":"15.10502736","MEAN_ANOMALY":"175.5764","MEAN_ELEMENT_THEORY":"SGP4","BSTAR":"-0.02842000000000","SITE":"AFETR","ARG_OF_PERICENTER":"102.2358","CLASSIFICATION_TYPE":"U","NORAD_CAT_ID":"54798","DECAY_DATE":null,"INCLINATION":"53.2174","ECCENTRICITY":"0.00016470","MEAN_MOTION_DDOT":"0.0000000000000","RCS_SIZE":"LARGE","OBJECT_ID":"2022-175AS","PERIAPSIS":"533.529","EPOCH":"2023-04-22T22:00:01.999584","RA_OF_ASC_NODE":"60.4833","TIME_SYSTEM":"UTC","APOAPSIS":"535.806"},{"APOAPSIS":"540.513","TIME_SYSTEM":"UTC","MEAN_MOTION_DDOT":"0.0000000000000","RCS_SIZE":"LARGE","OBJECT_ID":"2022-175AT","PERIAPSIS":"538.865","RA_OF_ASC_NODE":"63.8024","EPOCH":"2023-04-22T05:19:06.843072","CLASSIFICATION_TYPE":"U","DECAY_DATE":null,"INCLINATION":"53.2174","NORAD_CAT_ID":"54799","ECCENTRICITY":"0.00011910","MEAN_ANOMALY":"275.0656","MEAN_ELEMENT_THEORY":"SGP4","SITE":"AFETR","BSTAR":"0.00006378900000","ARG_OF_PERICENTER":"85.0472","COUNTRY_CODE":"US","MEAN_MOTION_DOT":"0.00000728","PERIOD":"95.436","FILE":"3892071","MEAN_MOTION":"15.08858453","TLE_LINE2":"2 54799  53.2174  63.8024 0001191  85.0472 275.0656 15.08858453 21381","GP_ID":"230566236","REF_FRAME":"TEME","REV_AT_EPOCH":"2138","EPHEMERIS_TYPE":"0","ELEMENT_SET_NO":"999","SEMIMAJOR_AXIS":"6917.824","TLE_LINE1":"1 54799U 22175AT  23112.22160698  .00000728  00000-0  63789-4 0  9998","OBJECT_NAME":"STARLINK-5421","LAUNCH_DATE":"2022-12-17","CENTER_NAME":"EARTH","OBJECT_TYPE":"PAYLOAD"},{"CLASSIFICATION_TYPE":"U","ECCENTRICITY":"0.00009590","DECAY_DATE":null,"INCLINATION":"53.2183","NORAD_CAT_ID":"54800","SITE":"AFETR","BSTAR":"0.00006389000000","MEAN_ANOMALY":"270.2637","MEAN_ELEMENT_THEORY":"SGP4","ARG_OF_PERICENTER":"89.8465","APOAPSIS":"540.387","TIME_SYSTEM":"UTC","OBJECT_ID":"2022-175AU","MEAN_MOTION_DDOT":"0.0000000000000","RCS_SIZE":"LARGE","PERIAPSIS":"539.060","RA_OF_ASC_NODE":"78.6354","EPOCH":"2023-04-22T04:58:33.231648","ELEMENT_SET_NO":"999","OBJECT_NAME":"STARLINK-5428","SEMIMAJOR_AXIS":"6917.858","TLE_LINE1":"1 54800U 22175AU  23112.20732907  .00000729  00000-0  63890-4 0  9991","CENTER_NAME":"EARTH","LAUNCH_DATE":"2022-12-17","OBJECT_TYPE":"PAYLOAD","FILE":"3892071","COUNTRY_CODE":"US","MEAN_MOTION_DOT":"0.00000729","PERIOD":"95.437","MEAN_MOTION":"15.08847171","REF_FRAME":"TEME","GP_ID":"230565501","TLE_LINE2":"2 54800  53.2183  78.6354 0000959  89.8465 270.2637 15.08847171 21177","REV_AT_EPOCH":"2117","EPHEMERIS_TYPE":"0"},{"MEAN_MOTION_DDOT":"0.0000000000000","RCS_SIZE":"LARGE","OBJECT_ID":"2022-175AV","PERIAPSIS":"538.965","RA_OF_ASC_NODE":"86.4468","EPOCH":"2023-04-22T15:42:19.777248","APOAPSIS":"540.495","TIME_SYSTEM":"UTC","MEAN_ANOMALY":"258.2175","MEAN_ELEMENT_THEORY":"SGP4","SITE":"AFETR","BSTAR":"0.00000777080000","ARG_OF_PERICENTER":"101.8941","CLASSIFICATION_TYPE":"U","DECAY_DATE":null,"INCLINATION":"53.2163","NORAD_CAT_ID":"54801","ECCENTRICITY":"0.00011060","TLE_LINE2":"2 54801  53.2163  86.4468 0001106 101.8941 258.2175 15.08844982 21101","GP_ID":"230598166","REF_FRAME":"TEME","EPHEMERIS_TYPE":"0","REV_AT_EPOCH":"2110","COUNTRY_CODE":"US","PERIOD":"95.437","MEAN_MOTION_DOT":"-0.00000164","FILE":"3892285","MEAN_MOTION":"15.08844982","CENTER_NAME":"EARTH","LAUNCH_DATE":"2022-12-17","OBJECT_TYPE":"PAYLOAD","ELEMENT_SET_NO":"999","TLE_LINE1":"1 54801U 22175AV  23112.65439557 -.00000164  00000-0  77708-5 0  9994","SEMIMAJOR_AXIS":"6917.865","OBJECT_NAME":"STARLINK-5429"},{"OBJECT_ID":"2022-175AW","MEAN_MOTION_DDOT":"0.0000000000000","RCS_SIZE":"LARGE","PERIAPSIS":"353.880","RA_OF_ASC_NODE":"38.7442","EPOCH":"2023-04-22T22:00:01.999584","APOAPSIS":"355.770","TIME_SYSTEM":"UTC","SITE":"AFETR","BSTAR":"-0.00769330000000","MEAN_ANOMALY":"309.5986","MEAN_ELEMENT_THEORY":"SGP4","ARG_OF_PERICENTER":"39.6861","CLASSIFICATION_TYPE":"U","ECCENTRICITY":"0.00014030","NORAD_CAT_ID":"54802","DECAY_DATE":null,"INCLINATION":"53.2177","REF_FRAME":"TEME","TLE_LINE2":"2 54802  53.2177  38.7442 0001403  39.6861 309.5986 15.71425164 19630","GP_ID":"230567566","EPHEMERIS_TYPE":"0","REV_AT_EPOCH":"1963","FILE":"3892088","COUNTRY_CODE":"US","MEAN_MOTION_DOT":"-0.00900063","PERIOD":"91.637","MEAN_MOTION":"15.71425164","CENTER_NAME":"EARTH","LAUNCH_DATE":"2022-12-17","OBJECT_TYPE":"PAYLOAD","ELEMENT_SET_NO":"999","OBJECT_NAME":"STARLINK-5426","TLE_LINE1":"1 54802U 22175AW  23112.91668981 -.00900063  00000-0 -76933-2 0  9993","SEMIMAJOR_AXIS":"6732.960"},{"MEAN_MOTION_DDOT":"0.0000000000000","RCS_SIZE":"LARGE","OBJECT_ID":"2022-175AX","PERIAPSIS":"538.856","RA_OF_ASC_NODE":"89.8430","EPOCH":"2023-04-21T22:46:18.084288","TIME_SYSTEM":"UTC","APOAPSIS":"540.597","MEAN_ANOMALY":"270.2843","MEAN_ELEMENT_THEORY":"SGP4","SITE":"AFETR","BSTAR":"0.00019389000000","ARG_OF_PERICENTER":"89.8293","CLASSIFICATION_TYPE":"U","INCLINATION":"53.2171","DECAY_DATE":null,"NORAD_CAT_ID":"54803","ECCENTRICITY":"0.00012580","TLE_LINE2":"2 54803  53.2171  89.8430 0001258  89.8293 270.2843 15.08846114 20992","GP_ID":"230566737","REF_FRAME":"TEME","REV_AT_EPOCH":"2099","EPHEMERIS_TYPE":"0","COUNTRY_CODE":"US","PERIOD":"95.437","MEAN_MOTION_DOT":"0.00002800","FILE":"3892071","MEAN_MOTION":"15.08846114","LAUNCH_DATE":"2022-12-17","CENTER_NAME":"EARTH","OBJECT_TYPE":"PAYLOAD","ELEMENT_SET_NO":"999","SEMIMAJOR_AXIS":"6917.862","TLE_LINE1":"1 54803U 22175AX  23111.94882042  .00002800  00000-0  19389-3 0  9995","OBJECT_NAME":"STARLINK-5430"},{"ELEMENT_SET_NO":"999","OBJECT_NAME":"STARLINK-5422","TLE_LINE1":"1 54804U 22175AY  23112.19762852 -.00000448  00000-0 -10069-4 0  9995","SEMIMAJOR_AXIS":"6917.875","CENTER_NAME":"EARTH","LAUNCH_DATE":"2022-12-17","OBJECT_TYPE":"PAYLOAD","FILE":"3892071","COUNTRY_CODE":"US","PERIOD":"95.437","MEAN_MOTION_DOT":"-0.00000448","MEAN_MOTION":"15.08841726","REF_FRAME":"TEME","TLE_LINE2":"2 54804  53.2170  73.6077 0001141 102.8718 257.2401 15.08841726 21247","GP_ID":"230565001","EPHEMERIS_TYPE":"0","REV_AT_EPOCH":"2124","CLASSIFICATION_TYPE":"U","ECCENTRICITY":"0.00011410","DECAY_DATE":null,"NORAD_CAT_ID":"54804","INCLINATION":"53.2170","BSTAR":"-0.00001006900000","SITE":"AFETR","MEAN_ANOMALY":"257.2401","MEAN_ELEMENT_THEORY":"SGP4","ARG_OF_PERICENTER":"102.8718","APOAPSIS":"540.529","TIME_SYSTEM":"UTC","OBJECT_ID":"2022-175AY","MEAN_MOTION_DDOT":"0.0000000000000","RCS_SIZE":"LARGE","PERIAPSIS":"538.951","RA_OF_ASC_NODE":"73.6077","EPOCH":"2023-04-22T04:44:35.104128"},{"CLASSIFICATION_TYPE":"U","DECAY_DATE":null,"NORAD_CAT_ID":"54805","INCLINATION":"53.2197","ECCENTRICITY":"0.00010180","MEAN_ELEMENT_THEORY":"SGP4","MEAN_ANOMALY":"261.1572","BSTAR":"0.00002092500000","SITE":"AFETR","ARG_OF_PERICENTER":"98.9536","TIME_SYSTEM":"UTC","APOAPSIS":"540.464","RCS_SIZE":"LARGE","MEAN_MOTION_DDOT":"0.0000000000000","OBJECT_ID":"2022-175AZ","EPOCH":"2023-04-21T20:52:58.212480","RA_OF_ASC_NODE":"75.1170","PERIAPSIS":"539.056","ELEMENT_SET_NO":"999","TLE_LINE1":"1 54805U 22175AZ  23111.87011820  .00000045  00000-0  20925-4 0  9995","SEMIMAJOR_AXIS":"6917.895","OBJECT_NAME":"STARLINK-5417","LAUNCH_DATE":"2022-12-17","CENTER_NAME":"EARTH","OBJECT_TYPE":"PAYLOAD","MEAN_MOTION_DOT":"0.00000045","PERIOD":"95.438","COUNTRY_CODE":"US","FILE":"3891716","MEAN_MOTION":"15.08835250","TLE_LINE2":"2 54805  53.2197  75.1170 0001018  98.9536 261.1572 15.08835250 21196","GP_ID":"230531500","REF_FRAME":"TEME","EPHEMERIS_TYPE":"0","REV_AT_EPOCH":"2119"},{"PERIAPSIS":"538.965","EPOCH":"2023-04-22T04:33:58.429440","RA_OF_ASC_NODE":"73.5657","MEAN_MOTION_DDOT":"0.0000000000000","RCS_SIZE":"LARGE","OBJECT_ID":"2022-175BA","APOAPSIS":"540.508","TIME_SYSTEM":"UTC","ARG_OF_PERICENTER":"115.8487","MEAN_ANOMALY":"244.2621","MEAN_ELEMENT_THEORY":"SGP4","SITE":"AFETR","BSTAR":"0.00003319300000","DECAY_DATE":null,"NORAD_CAT_ID":"54806","INCLINATION":"53.2186","ECCENTRICITY":"0.00011150","CLASSIFICATION_TYPE":"U","REV_AT_EPOCH":"2124","EPHEMERIS_TYPE":"0","TLE_LINE2":"2 54806  53.2186  73.5657 0001115 115.8487 244.2621 15.08842829 21242","GP_ID":"230566003","REF_FRAME":"TEME","MEAN_MOTION":"15.08842829","COUNTRY_CODE":"US","PERIOD":"95.437","MEAN_MOTION_DOT":"0.00000241","FILE":"3892071","OBJECT_TYPE":"PAYLOAD","LAUNCH_DATE":"2022-12-17","CENTER_NAME":"EARTH","SEMIMAJOR_AXIS":"6917.872","TLE_LINE1":"1 54806U 22175BA  23112.19025960  .00000241  00000-0  33193-4 0  9991","OBJECT_NAME":"STARLINK-5412","ELEMENT_SET_NO":"999"},{"OBJECT_NAME":"STARLINK-5410","TLE_LINE1":"1 54807U 22175BB  23112.19394749 -.00000322  00000-0 -21621-5 0  9992","SEMIMAJOR_AXIS":"6917.883","ELEMENT_SET_NO":"999","OBJECT_TYPE":"PAYLOAD","LAUNCH_DATE":"2022-12-17","CENTER_NAME":"EARTH","MEAN_MOTION":"15.08839171","FILE":"3892071","COUNTRY_CODE":"US","MEAN_MOTION_DOT":"-0.00000322","PERIOD":"95.438","REV_AT_EPOCH":"2124","EPHEMERIS_TYPE":"0","REF_FRAME":"TEME","TLE_LINE2":"2 54807  53.2181  73.5840 0001086  91.2538 268.8579 15.08839171 21243","GP_ID":"230566237","ECCENTRICITY":"0.00010860","DECAY_DATE":null,"NORAD_CAT_ID":"54807","INCLINATION":"53.2181","CLASSIFICATION_TYPE":"U","ARG_OF_PERICENTER":"91.2538","SITE":"AFETR","BSTAR":"-0.00000216210000","MEAN_ANOMALY":"268.8579","MEAN_ELEMENT_THEORY":"SGP4","APOAPSIS":"540.499","TIME_SYSTEM":"UTC","PERIAPSIS":"538.997","EPOCH":"2023-04-22T04:39:17.063136","RA_OF_ASC_NODE":"73.5840","OBJECT_ID":"2022-175BB","MEAN_MOTION_DDOT":"0.0000000000000","RCS_SIZE":"LARGE"}];
